OBJECT_NAME,OBJECT_ID,EPOCH,MEAN_MOTION,ECCENTRICITY,INCLINATION,RA_OF_ASC_NODE,ARG_OF_PERICENTER,MEAN_ANOMALY,EPHEMERIS_TYPE,CLASSIFICATION_TYPE,NORAD_CAT_ID,ELEMENT_SET_NO,REV_AT_EPOCH,BSTAR,MEAN_MOTION_DOT,MEAN_MOTION_DDOT
INNOSAT 3 (RS92S0),2025-155U,2026-06-25T03:41:57.245856,15.44351077,.0007618,97.4481,147.8430,133.0178,227.1710,0,U,64894,999,8219,.10119E-2,.46843E-3,0
KNACKSAT-2,1998-067XZ,2026-06-23T15:03:25.533504,15.60494137,.00087625,51.6285,262.0701,244.0918,115.9173,0,U,67683,999,2128,.46308779E-3,.38628E-3,0
