INNOSAT 3 (RS92S0)      
1 64894U 25155U   26176.15413479  .00046843  00000+0  10119-2 0  9993
2 64894  97.4481 147.8430 0007618 133.0178 227.1710 15.44351077 82195
KNACKSAT-2              
1 67683U 98067XZ  26174.62737886  .00038628  00000+0  46309-3 0  9998
2 67683  51.6285 262.0701 0008762 244.0918 115.9173 15.60494137 21288
